start=new Date('2023-06-23T00:00:00.000Z').valueOf();
sats=[{"MEAN_ELEMENT_THEORY":"SGP4","BSTAR":"0.00009383500000","INCLINATION":"53.0525","RCS_SIZE":"LARGE","OBJECT_TYPE":"PAYLOAD","EPHEMERIS_TYPE":"0","MEAN_MOTION_DDOT":"0.0000000000000","ARG_OF_PERICENTER":"94.0239","EPOCH":"2023-06-22T10:21:23.185440","CENTER_NAME":"EARTH","MEAN_ANOMALY":"266.0883","TLE_LINE2":"2 48092  53.0525 226.8302 0001169  94.0239 266.0883 15.06397034123650","ECCENTRICITY":"0.00011690","FILE":"3939841","SITE":"AFETR","MEAN_MOTION":"15.06397034","OBJECT_ID":"2021-027A","CLASSIFICATION_TYPE":"U","DECAY_DATE":null,"TLE_LINE1":"1 48092U 21027A   23173.43151835  .00001116  00000-0  93835-4 0  9992","ELEMENT_SET_NO":"999","REF_FRAME":"TEME","PERIOD":"95.592","RA_OF_ASC_NODE":"226.8302","SEMIMAJOR_AXIS":"6925.358","LAUNCH_DATE":"2021-04-07","NORAD_CAT_ID":"48092","OBJECT_NAME":"STARLINK-2048","GP_ID":"234456288","REV_AT_EPOCH":"12365","COUNTRY_CODE":"US","TIME_SYSTEM":"UTC","PERIAPSIS":"546.413","MEAN_MOTION_DOT":"0.00001116","APOAPSIS":"548.032"},{"CENTER_NAME":"EARTH","EPOCH":"2023-06-22T07:52:05.736288","MEAN_ANOMALY":"281.6893","ECCENTRICITY":"0.00020630","FILE":"3939743","TLE_LINE2":"2 48093  53.0541 292.2150 0002063  78.4327 281.6893 15.06392127122735","MEAN_MOTION":"15.06392127","OBJECT_ID":"2021-027B","SITE":"AFETR","MEAN_ELEMENT_THEORY":"SGP4","INCLINATION":"53.0541","BSTAR":"0.00081497000000","RCS_SIZE":"LARGE","EPHEMERIS_TYPE":"0","OBJECT_TYPE":"PAYLOAD","ARG_OF_PERICENTER":"78.4327","MEAN_MOTION_DDOT":"0.0000000000000","NORAD_CAT_ID":"48093","OBJECT_NAME":"STARLINK-2404","LAUNCH_DATE":"2021-04-07","REV_AT_EPOCH":"12273","GP_ID":"234453947","PERIAPSIS":"545.809","TIME_SYSTEM":"UTC","COUNTRY_CODE":"US","MEAN_MOTION_DOT":"0.00011876","APOAPSIS":"548.666","CLASSIFICATION_TYPE":"U","REF_FRAME":"TEME","TLE_LINE1":"1 48093U 21027B   23173.32784417  .00011876  00000-0  81497-3 0  9993","DECAY_DATE":null,"ELEMENT_SET_NO":"999","RA_OF_ASC_NODE":"292.2150","PERIOD":"95.593","SEMIMAJOR_AXIS":"6925.373"},{"ARG_OF_PERICENTER":"64.9059","MEAN_MOTION_DDOT":"0.0000000000000","OBJECT_TYPE":"PAYLOAD","EPHEMERIS_TYPE":"0","RCS_SIZE":"LARGE","MEAN_ELEMENT_THEORY":"SGP4","BSTAR":"0.00141170000000","INCLINATION":"53.0544","TLE_LINE2":"2 48094  53.0544 300.7441 0000948  64.9059 295.2028 15.06380741122649","FILE":"3940061","ECCENTRICITY":"0.00009480","SITE":"AFETR","OBJECT_ID":"2021-027C","MEAN_MOTION":"15.06380741","MEAN_ANOMALY":"295.2028","EPOCH":"2023-06-22T14:39:25.896096","CENTER_NAME":"EARTH","SEMIMAJOR_AXIS":"6925.408","DECAY_DATE":null,"TLE_LINE1":"1 48094U 21027C   23173.61071639  .00020797  00000-0  14117-2 0  9997","ELEMENT_SET_NO":"999","REF_FRAME":"TEME","PERIOD":"95.593","RA_OF_ASC_NODE":"300.7441","CLASSIFICATION_TYPE":"U","MEAN_MOTION_DOT":"0.00020797","APOAPSIS":"547.929","GP_ID":"234460853","REV_AT_EPOCH":"12264","COUNTRY_CODE":"US","TIME_SYSTEM":"UTC","PERIAPSIS":"546.616","LAUNCH_DATE":"2021-04-07","OBJECT_NAME":"STARLINK-2412","NORAD_CAT_ID":"48094"},{"MEAN_ELEMENT_THEORY":"SGP4","BSTAR":"0.00008182700000","INCLINATION":"53.0536","RCS_SIZE":"LARGE","EPHEMERIS_TYPE":"0","OBJECT_TYPE":"PAYLOAD","MEAN_MOTION_DDOT":"0.0000000000000","ARG_OF_PERICENTER":"5.9373","EPOCH":"2023-06-22T08:27:53.154720","CENTER_NAME":"EARTH","MEAN_ANOMALY":"354.1629","TLE_LINE2":"2 48095  53.0536 301.9081 0001111   5.9373 354.1629 15.06404402122600","ECCENTRICITY":"0.00011110","FILE":"3939744","SITE":"AFETR","OBJECT_ID":"2021-027D","MEAN_MOTION":"15.06404402","CLASSIFICATION_TYPE":"U","TLE_LINE1":"1 48095U 21027D   23173.35269855  .00000938  00000-0  81827-4 0  9997","DECAY_DATE":null,"ELEMENT_SET_NO":"999","REF_FRAME":"TEME","PERIOD":"95.592","RA_OF_ASC_NODE":"301.9081","SEMIMAJOR_AXIS":"6925.335","LAUNCH_DATE":"2021-04-07","NORAD_CAT_ID":"48095","OBJECT_NAME":"STARLINK-2414","GP_ID":"234453470","REV_AT_EPOCH":"12260","COUNTRY_CODE":"US","TIME_SYSTEM":"UTC","PERIAPSIS":"546.431","MEAN_MOTION_DOT":"0.00000938","APOAPSIS":"547.969"},{"LAUNCH_DATE":"2021-04-07","NORAD_CAT_ID":"48096","OBJECT_NAME":"STARLINK-2417","APOAPSIS":"548.003","MEAN_MOTION_DOT":"-0.00010868","TIME_SYSTEM":"UTC","COUNTRY_CODE":"US","PERIAPSIS":"546.521","GP_ID":"234457139","REV_AT_EPOCH":"12260","PERIOD":"95.593","RA_OF_ASC_NODE":"301.7231","TLE_LINE1":"1 48096U 21027E   23173.39323346 -.00010868  00000-0 -71216-3 0  9993","DECAY_DATE":null,"ELEMENT_SET_NO":"999","REF_FRAME":"TEME","CLASSIFICATION_TYPE":"U","SEMIMAJOR_AXIS":"6925.397","MEAN_ANOMALY":"246.0782","EPOCH":"2023-06-22T09:26:15.370944","CENTER_NAME":"EARTH","SITE":"AFETR","MEAN_MOTION":"15.06384348","OBJECT_ID":"2021-027E","TLE_LINE2":"2 48096  53.0545 301.7231 0001070 114.0319 246.0782 15.06384348122607","ECCENTRICITY":"0.00010700","FILE":"3939938","RCS_SIZE":"LARGE","BSTAR":"-0.00071216000000","INCLINATION":"53.0545","MEAN_ELEMENT_THEORY":"SGP4","MEAN_MOTION_DDOT":"0.0000000000000","ARG_OF_PERICENTER":"114.0319","EPHEMERIS_TYPE":"0","OBJECT_TYPE":"PAYLOAD"},{"INCLINATION":"53.0543","BSTAR":"0.00083218000000","MEAN_ELEMENT_THEORY":"SGP4","RCS_SIZE":"LARGE","OBJECT_TYPE":"PAYLOAD","EPHEMERIS_TYPE":"0","ARG_OF_PERICENTER":"85.8432","MEAN_MOTION_DDOT":"0.0000000000000","CENTER_NAME":"EARTH","EPOCH":"2023-06-22T10:32:36.873024","MEAN_ANOMALY":"274.2676","MEAN_MOTION":"15.06378930","OBJECT_ID":"2021-027F","SITE":"AFETR","ECCENTRICITY":"0.00010350","FILE":"3939837","TLE_LINE2":"2 48097  53.0543 281.5145 0001035  85.8432 274.2676 15.06378930122893","CLASSIFICATION_TYPE":"U","RA_OF_ASC_NODE":"281.5145","PERIOD":"95.593","REF_FRAME":"TEME","DECAY_DATE":null,"TLE_LINE1":"1 48097U 21027F   23173.43931566  .00012128  00000-0  83218-3 0  9992","ELEMENT_SET_NO":"999","SEMIMAJOR_AXIS":"6925.413","NORAD_CAT_ID":"48097","OBJECT_NAME":"STARLINK-2418","LAUNCH_DATE":"2021-04-07","PERIAPSIS":"546.561","COUNTRY_CODE":"US","TIME_SYSTEM":"UTC","REV_AT_EPOCH":"12289","GP_ID":"234455734","APOAPSIS":"547.995","MEAN_MOTION_DOT":"0.00012128"},{"TLE_LINE2":"2 48098  53.0534 290.1328 0001203  80.5366 279.5759 15.06388335122854","ECCENTRICITY":"0.00012030","FILE":"3940035","SITE":"AFETR","OBJECT_ID":"2021-027G","MEAN_MOTION":"15.06388335","EPOCH":"2023-06-22T17:57:08.737056","CENTER_NAME":"EARTH","MEAN_ANOMALY":"279.5759","OBJECT_TYPE":"PAYLOAD","EPHEMERIS_TYPE":"0","MEAN_MOTION_DDOT":"0.0000000000000","ARG_OF_PERICENTER":"80.5366","MEAN_ELEMENT_THEORY":"SGP4","BSTAR":"0.00018579000000","INCLINATION":"53.0534","RCS_SIZE":"LARGE","GP_ID":"234460362","REV_AT_EPOCH":"12285","COUNTRY_CODE":"US","TIME_SYSTEM":"UTC","PERIAPSIS":"546.416","MEAN_MOTION_DOT":"0.00002486","APOAPSIS":"548.082","LAUNCH_DATE":"2021-04-07","NORAD_CAT_ID":"48098","OBJECT_NAME":"STARLINK-2421","SEMIMAJOR_AXIS":"6925.384","CLASSIFICATION_TYPE":"U","DECAY_DATE":null,"TLE_LINE1":"1 48098U 21027G   23173.74801779  .00002486  00000-0  18579-3 0  9993","ELEMENT_SET_NO":"999","REF_FRAME":"TEME","PERIOD":"95.593","RA_OF_ASC_NODE":"290.1328"},{"SEMIMAJOR_AXIS":"6925.442","REF_FRAME":"TEME","DECAY_DATE":null,"TLE_LINE1":"1 48099U 21027H   23173.66969155  .00025672  00000-0  17375-2 0  9992","ELEMENT_SET_NO":"999","RA_OF_ASC_NODE":"300.4803","PERIOD":"95.594","CLASSIFICATION_TYPE":"U","MEAN_MOTION_DOT":"0.00025672","APOAPSIS":"548.069","REV_AT_EPOCH":"12264","GP_ID":"234460870","PERIAPSIS":"546.544","TIME_SYSTEM":"UTC","COUNTRY_CODE":"US","OBJECT_NAME":"STARLINK-2428","NORAD_CAT_ID":"48099","LAUNCH_DATE":"2021-04-07","ARG_OF_PERICENTER":"68.0076","MEAN_MOTION_DDOT":"0.0000000000000","EPHEMERIS_TYPE":"0","OBJECT_TYPE":"PAYLOAD","RCS_SIZE":"LARGE","MEAN_ELEMENT_THEORY":"SGP4","INCLINATION":"53.0549","BSTAR":"0.00173750000000","FILE":"3940035","ECCENTRICITY":"0.00011010","TLE_LINE2":"2 48099  53.0549 300.4803 0001101  68.0076 292.1030 15.06369581122642","MEAN_MOTION":"15.06369581","OBJECT_ID":"2021-027H","SITE":"AFETR","MEAN_ANOMALY":"292.1030","CENTER_NAME":"EARTH","EPOCH":"2023-06-22T16:04:21.349920"},{"SEMIMAJOR_AXIS":"6925.407","CLASSIFICATION_TYPE":"U","PERIOD":"95.593","RA_OF_ASC_NODE":"281.8492","TLE_LINE1":"1 48100U 21027J   23173.36559915  .00008829  00000-0  61117-3 0  9990","ELEMENT_SET_NO":"999","DECAY_DATE":null,"REF_FRAME":"TEME","TIME_SYSTEM":"UTC","COUNTRY_CODE":"US","PERIAPSIS":"546.845","GP_ID":"234453457","REV_AT_EPOCH":"12288","APOAPSIS":"547.699","MEAN_MOTION_DOT":"0.00008829","LAUNCH_DATE":"2021-04-07","OBJECT_NAME":"STARLINK-2430","NORAD_CAT_ID":"48100","EPHEMERIS_TYPE":"0","OBJECT_TYPE":"PAYLOAD","MEAN_MOTION_DDOT":"0.0000000000000","ARG_OF_PERICENTER":"103.5177","BSTAR":"0.00061117000000","INCLINATION":"53.0535","MEAN_ELEMENT_THEORY":"SGP4","RCS_SIZE":"LARGE","SITE":"AFETR","OBJECT_ID":"2021-027J","MEAN_MOTION":"15.06380917","TLE_LINE2":"2 48100  53.0535 281.8492 0000617 103.5177 256.5881 15.06380917122884","ECCENTRICITY":"0.00006170","FILE":"3939744","EPOCH":"2023-06-22T08:46:27.766560","CENTER_NAME":"EARTH","MEAN_ANOMALY":"256.5881"},{"GP_ID":"234460369","REV_AT_EPOCH":"12278","COUNTRY_CODE":"US","TIME_SYSTEM":"UTC","PERIAPSIS":"546.459","MEAN_MOTION_DOT":"0.00024111","APOAPSIS":"548.053","LAUNCH_DATE":"2021-04-07","NORAD_CAT_ID":"48101","OBJECT_NAME":"STARLINK-2436","SEMIMAJOR_AXIS":"6925.391","CLASSIFICATION_TYPE":"U","DECAY_DATE":null,"TLE_LINE1":"1 48101U 21027K   23173.61437885  .00024111  00000-0  16326-2 0  9993","ELEMENT_SET_NO":"999","REF_FRAME":"TEME","PERIOD":"95.593","RA_OF_ASC_NODE":"290.7317","TLE_LINE2":"2 48101  53.0541 290.7317 0001151  85.6948 274.4172 15.06386127122787","FILE":"3940035","ECCENTRICITY":"0.00011510","SITE":"AFETR","MEAN_MOTION":"15.06386127","OBJECT_ID":"2021-027K","EPOCH":"2023-06-22T14:44:42.332640","CENTER_NAME":"EARTH","MEAN_ANOMALY":"274.4172","OBJECT_TYPE":"PAYLOAD","EPHEMERIS_TYPE":"0","ARG_OF_PERICENTER":"85.6948","MEAN_MOTION_DDOT":"0.0000000000000","MEAN_ELEMENT_THEORY":"SGP4","BSTAR":"0.00163260000000","INCLINATION":"53.0541","RCS_SIZE":"LARGE"}];
